#cP2022  3 19 18  0  0.00000000     576 d+D   IGb14 EXT AIUB
## 2201 583200.00000000   300.00000000 59657 0.7500000000000
+   76   G01G02G03G04G05G06G07G08G09G10G11G12G13G14G15G16G17
+        G18G19G20G21G22G23G24G25G26G27G28G29G30G31G32R01R02
+        R03R04R05R07R08R09R12R13R14R15R17R18R19R20R21R22R24
+        E01E02E03E04E05E07E08E10E11E12E13E14E15E18E19E21E24
+        E25E26E27E30E31E33E34E36  0  0  0  0  0  0  0  0  0
++         5  7  6  8  7  7  7  6  6  6  8  7  6  7  7  7  7
++         8  7  7  7  7  7  6  6  7  6  7  7  6  7  6  8  6
++         7  7  7  8  7  6  7  8  7  7  8  8  9  9  8  7  8
++         6  6  6  7  6  6  6  7  7  7  6  7  6  6  7  6  7
++         6  7  6  6  6  7  7  7  0  0  0  0  0  0  0  0  0
%c M  cc GPS ccc cccc cccc cccc cccc ccccc ccccc ccccc ccccc
%c cc cc ccc ccc cccc cccc cccc cccc ccccc ccccc ccccc ccccc
%f  1.2500000  1.025000000  0.00000000000  0.000000000000000
%f  0.0000000  0.000000000  0.00000000000  0.000000000000000
%i    0    0    0    0      0      0      0      0         0
%i    0    0    0    0      0      0      0      0         0
/* Center for Orbit Determination in Europe (CODE)          
/* Ultra-rapid GRE orbits starting year-day 22078 18 hour   
/* Observed/predicted: 24/24 hours (data used up to 079R)   
/* PCV:IGS14      OL/AL:FES2014b NONE     YN ORB:CoN CLK:BRD
*  2022  3 21  7 40  0.00000000
PG01 -13123.285178  16027.312442  16128.821173    403.838729               P   P
PG02  14086.135916   6554.060494 -20866.570499   -652.486946               P   P
PG03 -22314.517782  13229.764016  -5518.502239   -172.905950               P   P
PG04 -14430.268364   7182.449270 -21116.151904   -182.111995               P   P
PG05  24497.824254  -3544.490859  -9994.763921    -75.433468               P   P
PG06   6325.891734  21596.815664 -13976.306147    238.593824               P   P
PG07  -5208.166042  25633.474143  -2238.445336    317.052968               P   P
PG08 -21160.567988  -1732.204419  16144.692674    -60.694432               P   P
PG09  -3633.784972  15871.901161 -21044.456603   -348.584625               P   P
PG10  -3283.995203 -14816.832236  21922.223236   -353.450958               P   P
PG11  13633.410501   7942.025561 -21372.528846    -58.655705               P   P
PG12  24412.508996  -9989.496028  -2694.419910   -188.117659               P   P
PG13  21517.945135  10964.630484  11089.173173    280.443681               P   P
PG14   1674.461459  15593.426299  21421.921546    -95.852819               P   P
PG15  21154.977539  -1213.804902  15794.966511    -75.151397               P   P
PG16 -23308.330017  -2296.388474 -13228.776152   -483.070339               P   P
PG17  10667.700029  20858.311938  12896.025464    589.992626               P   P
PG18   5904.312937 -25687.471333  -2784.862485    214.897187               P   P
PG19  16302.173149  20400.805992   5114.529843    133.818256               P   P
PG20  19832.126454   2720.318650 -17335.408066    516.202515               P   P
PG21 -15436.124560   4763.205511  21641.466500    159.636613               P   P
PG22 -17952.096088 -19499.180273   3277.122207    230.803440               P   P
PG23   9012.101321 -17441.173945  17834.873478     -8.587775               P   P
PG24  14259.037538 -12177.936468  18357.017021    265.981353               P   P
PG25  15472.239664 -16823.316280 -13576.067237    301.209989               P   P
PG26 -14773.694939  -9354.096172 -20156.527534    192.473457               P   P
PG27 -22955.089683 -11851.961774   6805.351330    160.800135               P   P
PG28  10384.698860  12338.750403  21582.847353    375.770557               P   P
PG29   6209.516693 -13974.225033 -21759.358982   -493.842390               P   P
PG30    330.415609  25810.247800   5754.408079   -519.818775               P   P
PG31  -8242.114661 -19518.241518 -15848.813276   -169.882338               P   P
PG32 -14660.355344 -19961.493766   9984.534007    -88.982179               P   P
PR01 -22290.315996  -8485.358431   9032.845252      7.300638               P   P
PR02 -23184.356482    173.932568 -10659.677668    513.080508               P   P
PR03  -9828.033476   8575.134499 -21882.939503     53.451397               P   P
PR04   8835.102022  11802.516216 -20781.004777    132.919102               P   P
PR05  22525.614625   8712.780125  -8155.752031     89.762607               P   P
PR07   8976.339145  -8890.141718  22194.188471     32.923176               P   P
PR08  -8967.691320 -11920.136400  20759.452092    -64.150444               P   P
PR09  18594.788745 -12182.931944  12587.287809     45.469792               P   P
PR12 -11373.469802  -3399.890760 -22560.527643     17.530278               P   P
PR13 -18352.596540  11281.327245 -13683.716007    -19.743121               P   P
PR14 -14811.653761  20267.723137   4497.795878     75.611279               P   P
PR15  -2650.481469  16797.048765  19027.181129     97.418204               P   P
PR17  -2464.242798  18268.623686  17654.459370    511.233447               P   P
PR18   6462.976871  24483.732201   2818.286722    110.955848               P   P
PR19  11343.996161  19016.836934 -12659.250000   -182.331479               P   P
PR20  10558.519504   -465.092295 -23204.942497    -67.074783               P   P
PR21   1710.555600 -19214.279836 -16679.894727   -286.987965               P   P
PR22  -6765.096717 -24580.604617  -1901.213875   -171.915616               P   P
PR24 -10812.465755   1564.249623  23066.252698     85.365948               P   P
PE01 -18009.914071  -7275.250544 -22343.789386   -600.885510               P   P
PE02  18110.697832   7164.725113  22275.903231    287.614232               P   P
PE03  24914.976333  15907.740331  -1647.580991   -539.591875               P   P
PE04 -25040.777797  -1832.536008 -15669.399857   -989.136541               P   P
PE05  10124.859993  20905.932290 -18341.094392   -198.386147               P   P
PE07  10348.513145 -13674.330894  24135.215797   -650.447171               P   P
PE08  24855.434565   1512.184151  16014.620233   -498.719290               P   P
PE10 -13574.397603  15641.090588  21142.244607   -501.773849               P   P
PE11  -9066.814507  24459.819453  13960.972382   4175.246987               P   P
PE12 -15923.121940   4714.735661  24501.366115   4702.965113               P   P
PE13   9312.468887 -24045.669346 -14541.339415    427.436883               P   P
PE14 -15463.780647 -20254.091280  -6136.032293  -1785.700511               P   P
PE15  15844.356796  -4618.312148 -24566.062427    756.520796               P   P
PE18  26085.164287  15087.650571  -7578.043306  -1659.172366               P   P
PE19 -23769.907350 -17184.759812   4007.901451  -1670.752142               P   P
PE21    236.068693 -18320.517018 -23252.097213   -723.759465               P   P
PE24 -20440.975459  19096.500847   9705.167772   -517.013005               P   P
PE25   -539.822309  18423.513653  23163.557831   -567.551631               P   P
PE26  -3201.352579 -29018.530126   4908.707322   -937.014120               P   P
PE27  19418.514081 -19516.252001 -10854.661091   -257.973575               P   P
PE30  27008.156193  -8322.962753   8753.444484   -365.750542               P   P
PE31 -27021.567782   9224.164341  -7824.310190   -493.843473               P   P
PE33 -13005.545412 -17464.770830  20063.718042   -458.368770               P   P
PE34  13115.473481  17231.220235 -20183.577059   -507.887454               P   P
PE36   2635.379681  29208.934913  -3943.392768   -348.295249               P   P
EOF
